{"spkid": "50038495", "covariance": {"epoch": "2460418.5", "elements": [{"name": "e", "sigma": 6.52190129184623e-08, "units": null, "title": "eccentricity", "value": ".6543214077784238", "label": "e"}, {"units": "au", "title": "perihelion distance", "value": ".8965358585249181", "name": "q", "sigma": 1.70209486897999e-07, "label": "q"}, {"units": "TDB", "title": "time of perihelion passage", "value": "2460874.679356559926", "sigma": 1.94746808872713e-05, "name": "tp", "label": "tp"}, {"label": "node", "name": "om", "sigma": 1.13740647132075e-05, "units": "deg", "title": "longitude of the ascending node", "value": "81.88909410087292"}, {"label": "peri", "units": "deg", "title": "argument of perihelion", "value": "224.2775045328898", "sigma": 2.7871793281839e-05, "name": "w"}, {"units": "deg", "title": "inclination", "value": "14.59656113819583", "name": "i", "sigma": 9.03583469608126e-06, "label": "i"}], "data": [["4.253519646058553E-15", "-1.110083899324408E-14", "1.024149526677125E-12", "1.193142668437916E-14", "1.646008899504775E-12", "1.992331881990507E-13"], ["-1.110083899324408E-14", "2.897126943008016E-14", "-2.674004500916603E-12", "-2.782717118927543E-14", "-4.300651824599848E-12", "-5.233336048249517E-13"], ["1.024149526677125E-12", "-2.674004500916603E-12", "3.792631956610486E-10", "3.657116993413229E-11", "4.360790989350333E-10", "7.401097144466337E-11"], ["1.193142668437916E-14", "-2.782717118927543E-14", "3.657116993413229E-11", "1.293693481002323E-10", "-1.056256482275447E-10", "-5.323268232427628E-11"], ["1.646008899504775E-12", "-4.300651824599848E-12", "4.360790989350333E-10", "-1.056256482275447E-10", "7.768368607455646E-10", "1.437786613226184E-10"], ["1.992331881990507E-13", "-5.233336048249517E-13", "7.401097144466337E-11", "-5.323268232427628E-11", "1.437786613226184E-10", "8.164630865490586E-11"]], "labels": ["e", "q", "tp", "node", "peri", "i"]}, "elements": [{"label": "e", "units": null, "value": ".6543866743825902", "title": "eccentricity", "name": "e", "sigma": "6.4482E-8"}, {"value": "2.597902725023071", "title": "semi-major axis", "units": "au", "sigma": "8.0728E-9", "name": "a", "label": "a"}, {"label": "q", "sigma": "1.696E-7", "name": "q", "value": ".8978698004257547", "title": "perihelion distance", "units": "au"}, {"label": "i", "name": "i", "sigma": "9.032E-6", "units": "deg", "value": "14.58666498614913", "title": "inclination; angle with respect to x-y ecliptic plane"}, {"label": "node", "units": "deg", "value": "81.87763543956299", "title": "longitude of the ascending node", "name": "om", "sigma": "1.1375E-5"}, {"sigma": "2.7973E-5", "name": "w", "value": "224.2649830240743", "title": "argument of perihelion", "units": "deg", "label": "peri"}, {"sigma": "4.2861E-6", "name": "ma", "units": "deg", "title": "mean anomaly", "value": "76.70216347978443", "label": "M"}, {"units": "TDB", "value": "2460874.634886476548", "title": "time of perihelion passage", "sigma": "1.9637E-5", "name": "tp", "label": "tp"}, {"value": "1529.441094570443", "title": "sidereal orbital period", "units": "d", "name": "per", "sigma": "7.129E-6", "label": "period"}, {"sigma": "1.0971E-9", "name": "n", "title": "mean motion", "value": ".2353801014488297", "units": "deg/d", "label": "n"}, {"label": "Q", "sigma": "1.3356E-8", "name": "ad", "units": "au", "value": "4.297935649620388", "title": "aphelion distance"}], "epoch": "2461200.5"}